ONEWEB-0597             
1 54663U 22166X   24338.60321838  .00000082  00000+0  16681-3 0  9996
2 54663  87.9301 355.6600 0002102  92.6472 267.4902 13.21826322 97482
ONEWEB-0600             
1 54664U 22166Y   24338.58587031 -.00000057  00000+0 -16835-3 0  9998
2 54664  87.9296 355.6939 0001975  90.6765 269.4595 13.21825626 97454
ONEWEB-0601             
1 54665U 22166Z   24338.57798566  .00000019  00000+0  14567-4 0  9992
2 54665  87.9302 355.6724 0002200  97.3308 262.8076 13.21825976 97644
ONEWEB-0602             
1 54666U 22166AA  24338.54329073  .00000136  00000+0  29892-3 0  9999
2 54666  87.9302 355.6815 0002169  92.1850 267.9532 13.21826910 97489
ONEWEB-0603             
1 54667U 22166AB  24338.54802775  .00000121  00000+0  26096-3 0  9992
2 54667  87.9279 355.6738 0002239  93.9381 266.2008 13.21826896 97419
ONEWEB-0604             
1 54668U 22166AC  24338.61108886  .00000074  00000+0  14692-3 0  9999
2 54668  87.9295 355.6400 0002077  88.0483 272.0888 13.21826378 97384
ONEWEB-0605             
1 54669U 22166AD  24338.60479148  .00000030  00000+0  41294-4 0  9992
2 54669  87.9296 355.6731 0002326 107.5381 252.6007 13.21824125 97457
ONEWEB-0606             
1 54670U 22166AE  24338.55117734  .00000092  00000+0  19206-3 0  9993
2 54670  87.9303 355.6834 0001669  92.0667 268.0658 13.21824395 97504
